SL-14 R/B               
1 16496U 86006B   26091.87318070  .00001159  00000+0  12045-3 0  9998
2 16496  82.5258 237.9133 0076115 194.7849 165.1144 14.86854473152659
COSMOS 1743             
1 16719U 86034A   26091.80610118  .00056605  00000+0  68169-3 0  9992
2 16719  82.5313  49.5333 0005141 161.1896 198.9551 15.60572127183857
SL-14 R/B               
1 16792U 86046B   26091.64053718  .00000626  00000+0  69122-4 0  9998
2 16792  82.4810  58.4912 0023872 148.7896 211.4744 14.85613449129813
SL-14 R/B               
1 16882U 86055B   26091.51929205  .00000546  00000+0  60119-4 0  9995
2 16882  82.5169 105.2098 0017357 255.4997 265.8874 14.85663347122751
AJISAI (EGS)            
1 16908U 86061A   26091.85056585 -.00000101  00000+0 -25797-4 0  9992
2 16908  50.0118  22.1275 0011354 346.6333 112.6237 12.44515630470882
SL-14 R/B               
1 17567U 87024B   26091.66557282  .00000604  00000+0  65909-4 0  9998
2 17567  82.5258  71.1625 0018156 179.7105 180.4125 14.86154797 91543
COSMOS 1833             
1 17589U 87027A   26091.86697824 -.00000306  00000+0 -13786-3 0  9990
2 17589  70.9167 277.3020 0023076 180.1208 179.9911 14.13045481 13597
SL-16 R/B               
1 17590U 87027B   26091.77340096  .00000240  00000+0  14285-3 0  9998
2 17590  71.0020 227.8479 0002887  85.0271 275.1182 14.17167041 18615
SL-14 R/B               
1 17912U 87038B   26091.87442474  .00000582  00000+0  64528-4 0  9997
2 17912  82.4977 274.9598 0020765  88.2493 272.1101 14.85391137 82676
COSMOS 1844             
1 17973U 87041A   26091.87745718  .00000392  00000+0  22842-3 0  9996
2 17973  70.9016 345.2688 0031329 343.8803  16.1318 14.14560032  6861
SL-14 R/B               
1 18153U 87055B   26091.24102057  .00000453  00000+0  49335-4 0  9991
2 18153  82.5001 327.7798 0019339 301.4672  58.4653 14.85651450 73287
COSMOS 1867             
1 18187U 87060A   26091.70513825 -.00000019  00000+0  30474-4 0  9997
2 18187  65.0098 242.2472 0014895 279.9787  79.9616 14.31506662 23236
SL-14 R/B               
1 18749U 88001B   26091.30530690  .00000527  00000+0  57964-4 0  9998
2 18749  82.5158 174.0964 0018627 159.2606 200.9371 14.85552398 45386
COSMOS 1933             
1 18958U 88020A   26091.79414699  .00006186  00000+0  30096-3 0  9997
2 18958  82.5128 228.0466 0005502 114.1422 246.0388 15.18209210 53732
SL-3 R/B                
1 19046U 88032B   26091.83888103  .00006197  00000+0  28686-3 0  9993
2 19046  97.5216  75.0164 0026778 149.7597 210.5190 15.20168502 55623
SL-16 R/B               
1 19120U 88039B   26091.88064292 -.00000007  00000+0  19712-4 0  9999
2 19120  71.0173  19.5097 0023776 301.1861  58.6933 14.19620344961677
COSMOS 1953             
1 19210U 88050A   26091.86278195  .00007953  00000+0  28169-3 0  9990
2 19210  82.5068 134.9343 0012076  50.3830 309.8473 15.28885196 41323
